CCSDS_OMM_VERS = 2.0
CREATION_DATE  = 
ORIGINATOR     = 

OBJECT_NAME    = SL-14 R/B
OBJECT_ID      = 1986-046B
CENTER_NAME    = EARTH
REF_FRAME      = TEME
TIME_SYSTEM    = UTC
MEAN_ELEMENT_THEORY = SGP/SGP4

EPOCH          = 2025-11-25T01:35:09.463200
MEAN_MOTION    = 14.85458467
ECCENTRICITY   = .0022295
INCLINATION    = 82.4818
RA_OF_ASC_NODE = 179.0047
ARG_OF_PERICENTER = 210.7342
MEAN_ANOMALY   = 149.2570

EPHEMERIS_TYPE = 0
CLASSIFICATION_TYPE = U
NORAD_CAT_ID   = 16792
ELEMENT_SET_NO = 999
REV_AT_EPOCH   = 11087
BSTAR          = .62839E-4
MEAN_MOTION_DOT = .568E-5
MEAN_MOTION_DDOT = 0

CCSDS_OMM_VERS = 2.0
CREATION_DATE  = 
ORIGINATOR     = 

OBJECT_NAME    = SL-14 R/B
OBJECT_ID      = 1986-055B
CENTER_NAME    = EARTH
REF_FRAME      = TEME
TIME_SYSTEM    = UTC
MEAN_ELEMENT_THEORY = SGP/SGP4

EPOCH          = 2025-11-25T03:38:12.967872
MEAN_MOTION    = 14.85504877
ECCENTRICITY   = .0018027
INCLINATION    = 82.5218
RA_OF_ASC_NODE = 224.8971
ARG_OF_PERICENTER = 322.1989
MEAN_ANOMALY   = 202.0579

EPHEMERIS_TYPE = 0
CLASSIFICATION_TYPE = U
NORAD_CAT_ID   = 16882
ELEMENT_SET_NO = 999
REV_AT_EPOCH   = 10384
BSTAR          = .7588E-4
MEAN_MOTION_DOT = .68E-5
MEAN_MOTION_DDOT = 0

CCSDS_OMM_VERS = 2.0
CREATION_DATE  = 
ORIGINATOR     = 

OBJECT_NAME    = AJISAI (EGS)
OBJECT_ID      = 1986-061A
CENTER_NAME    = EARTH
REF_FRAME      = TEME
TIME_SYSTEM    = UTC
MEAN_ELEMENT_THEORY = SGP/SGP4

EPOCH          = 2025-11-25T01:48:13.341024
MEAN_MOTION    = 12.44514102
ECCENTRICITY   = .0011234
INCLINATION    = 50.0108
RA_OF_ASC_NODE = 55.0334
ARG_OF_PERICENTER = 21.5249
MEAN_ANOMALY   = 46.2937

EPHEMERIS_TYPE = 0
CLASSIFICATION_TYPE = U
NORAD_CAT_ID   = 16908
ELEMENT_SET_NO = 999
REV_AT_EPOCH   = 45497
BSTAR          = .39076E-4
MEAN_MOTION_DOT = -.92E-6
MEAN_MOTION_DDOT = 0

CCSDS_OMM_VERS = 2.0
CREATION_DATE  = 
ORIGINATOR     = 

OBJECT_NAME    = COSMOS 1812
OBJECT_ID      = 1987-003A
CENTER_NAME    = EARTH
REF_FRAME      = TEME
TIME_SYSTEM    = UTC
MEAN_ELEMENT_THEORY = SGP/SGP4

EPOCH          = 2025-11-24T23:40:20.044704
MEAN_MOTION    = 15.71614142
ECCENTRICITY   = .0006575
INCLINATION    = 82.4879
RA_OF_ASC_NODE = 311.1761
ARG_OF_PERICENTER = 110.5499
MEAN_ANOMALY   = 249.6469

EPHEMERIS_TYPE = 0
CLASSIFICATION_TYPE = U
NORAD_CAT_ID   = 17295
ELEMENT_SET_NO = 999
REV_AT_EPOCH   = 12786
BSTAR          = .71442E-3
MEAN_MOTION_DOT = .92614E-3
MEAN_MOTION_DDOT = 0

CCSDS_OMM_VERS = 2.0
CREATION_DATE  = 
ORIGINATOR     = 

OBJECT_NAME    = SL-14 R/B
OBJECT_ID      = 1987-024B
CENTER_NAME    = EARTH
REF_FRAME      = TEME
TIME_SYSTEM    = UTC
MEAN_ELEMENT_THEORY = SGP/SGP4

EPOCH          = 2025-11-25T01:40:56.394624
MEAN_MOTION    = 14.85999065
ECCENTRICITY   = .0016836
INCLINATION    = 82.5287
RA_OF_ASC_NODE = 191.0522
ARG_OF_PERICENTER = 245.5849
MEAN_ANOMALY   = 114.3611

EPHEMERIS_TYPE = 0
CLASSIFICATION_TYPE = U
NORAD_CAT_ID   = 17567
ELEMENT_SET_NO = 999
REV_AT_EPOCH   = 7259
BSTAR          = .61627E-4
MEAN_MOTION_DOT = .564E-5
MEAN_MOTION_DDOT = 0

CCSDS_OMM_VERS = 2.0
CREATION_DATE  = 
ORIGINATOR     = 

OBJECT_NAME    = COSMOS 1833
OBJECT_ID      = 1987-027A
CENTER_NAME    = EARTH
REF_FRAME      = TEME
TIME_SYSTEM    = UTC
MEAN_ELEMENT_THEORY = SGP/SGP4

EPOCH          = 2025-11-25T00:28:45.566976
MEAN_MOTION    = 14.13017964
ECCENTRICITY   = .0021785
INCLINATION    = 70.9127
RA_OF_ASC_NODE = 186.0271
ARG_OF_PERICENTER = 356.7288
MEAN_ANOMALY   = 3.3686

EPHEMERIS_TYPE = 0
CLASSIFICATION_TYPE = U
NORAD_CAT_ID   = 17589
ELEMENT_SET_NO = 999
REV_AT_EPOCH   = 99552
BSTAR          = -.13782E-4
MEAN_MOTION_DOT = -.74E-6
MEAN_MOTION_DDOT = 0

CCSDS_OMM_VERS = 2.0
CREATION_DATE  = 
ORIGINATOR     = 

OBJECT_NAME    = SL-16 R/B
OBJECT_ID      = 1987-027B
CENTER_NAME    = EARTH
REF_FRAME      = TEME
TIME_SYSTEM    = UTC
MEAN_ELEMENT_THEORY = SGP/SGP4

EPOCH          = 2025-11-24T20:58:17.855328
MEAN_MOTION    = 14.17148200
ECCENTRICITY   = .0007272
INCLINATION    = 71.0002
RA_OF_ASC_NODE = 137.3641
ARG_OF_PERICENTER = 278.0340
MEAN_ANOMALY   = 81.9958

EPHEMERIS_TYPE = 0
CLASSIFICATION_TYPE = U
NORAD_CAT_ID   = 17590
ELEMENT_SET_NO = 999
REV_AT_EPOCH   = 49
BSTAR          = .13404E-3
MEAN_MOTION_DOT = .222E-5
MEAN_MOTION_DDOT = 0

CCSDS_OMM_VERS = 2.0
CREATION_DATE  = 
ORIGINATOR     = 

OBJECT_NAME    = SL-14 R/B
OBJECT_ID      = 1987-038B
CENTER_NAME    = EARTH
REF_FRAME      = TEME
TIME_SYSTEM    = UTC
MEAN_ELEMENT_THEORY = SGP/SGP4

EPOCH          = 2025-11-25T03:30:22.495680
MEAN_MOTION    = 14.85237186
ECCENTRICITY   = .002018
INCLINATION    = 82.5031
RA_OF_ASC_NODE = 35.2700
ARG_OF_PERICENTER = 146.5716
MEAN_ANOMALY   = 213.6779

EPHEMERIS_TYPE = 0
CLASSIFICATION_TYPE = U
NORAD_CAT_ID   = 17912
ELEMENT_SET_NO = 999
REV_AT_EPOCH   = 6371
BSTAR          = .69668E-4
MEAN_MOTION_DOT = .624E-5
MEAN_MOTION_DDOT = 0

CCSDS_OMM_VERS = 2.0
CREATION_DATE  = 
ORIGINATOR     = 

OBJECT_NAME    = COSMOS 1844
OBJECT_ID      = 1987-041A
CENTER_NAME    = EARTH
REF_FRAME      = TEME
TIME_SYSTEM    = UTC
MEAN_ELEMENT_THEORY = SGP/SGP4

EPOCH          = 2025-11-25T02:17:00.777696
MEAN_MOTION    = 14.14528304
ECCENTRICITY   = .003086
INCLINATION    = 70.8995
RA_OF_ASC_NODE = 254.7846
ARG_OF_PERICENTER = 184.4317
MEAN_ANOMALY   = 175.6537

EPHEMERIS_TYPE = 0
CLASSIFICATION_TYPE = U
NORAD_CAT_ID   = 17973
ELEMENT_SET_NO = 999
REV_AT_EPOCH   = 98879
BSTAR          = .3856E-4
MEAN_MOTION_DOT = .26E-6
MEAN_MOTION_DDOT = 0

CCSDS_OMM_VERS = 2.0
CREATION_DATE  = 
ORIGINATOR     = 

OBJECT_NAME    = SL-14 R/B
OBJECT_ID      = 1987-055B
CENTER_NAME    = EARTH
REF_FRAME      = TEME
TIME_SYSTEM    = UTC
MEAN_ELEMENT_THEORY = SGP/SGP4

EPOCH          = 2025-11-25T01:46:09.221376
MEAN_MOTION    = 14.85493331
ECCENTRICITY   = .002072
INCLINATION    = 82.4990
RA_OF_ASC_NODE = 87.6357
ARG_OF_PERICENTER = 3.7392
MEAN_ANOMALY   = 356.3975

EPHEMERIS_TYPE = 0
CLASSIFICATION_TYPE = U
NORAD_CAT_ID   = 18153
ELEMENT_SET_NO = 999
REV_AT_EPOCH   = 5440
BSTAR          = .74498E-4
MEAN_MOTION_DOT = .669E-5
MEAN_MOTION_DDOT = 0

CCSDS_OMM_VERS = 2.0
CREATION_DATE  = 
ORIGINATOR     = 

OBJECT_NAME    = COSMOS 1867
OBJECT_ID      = 1987-060A
CENTER_NAME    = EARTH
REF_FRAME      = TEME
TIME_SYSTEM    = UTC
MEAN_ELEMENT_THEORY = SGP/SGP4

EPOCH          = 2025-11-25T01:37:01.875648
MEAN_MOTION    = 14.31482083
ECCENTRICITY   = .001363
INCLINATION    = 65.0101
RA_OF_ASC_NODE = 239.6908
ARG_OF_PERICENTER = 269.3056
MEAN_ANOMALY   = 90.6467

EPHEMERIS_TYPE = 0
CLASSIFICATION_TYPE = U
NORAD_CAT_ID   = 18187
ELEMENT_SET_NO = 999
REV_AT_EPOCH   = 496
BSTAR          = .34247E-4
MEAN_MOTION_DOT = -.9E-7
MEAN_MOTION_DDOT = 0

CCSDS_OMM_VERS = 2.0
CREATION_DATE  = 
ORIGINATOR     = 

OBJECT_NAME    = COSMOS 1892
OBJECT_ID      = 1987-088A
CENTER_NAME    = EARTH
REF_FRAME      = TEME
TIME_SYSTEM    = UTC
MEAN_ELEMENT_THEORY = SGP/SGP4

EPOCH          = 2025-11-25T05:33:18.347904
MEAN_MOTION    = 16.13202004
ECCENTRICITY   = .0005564
INCLINATION    = 82.4632
RA_OF_ASC_NODE = 63.4200
ARG_OF_PERICENTER = 269.7044
MEAN_ANOMALY   = 90.3603

EPHEMERIS_TYPE = 0
CLASSIFICATION_TYPE = U
NORAD_CAT_ID   = 18421
ELEMENT_SET_NO = 999
REV_AT_EPOCH   = 8851
BSTAR          = .75267E-3
MEAN_MOTION_DOT = .859773E-2
MEAN_MOTION_DDOT = .4446E-3

