SL-14 R/B               
1 16792U 86046B   25329.06608175  .00000568  00000+0  62839-4 0  9993
2 16792  82.4818 179.0047 0022295 210.7342 149.2570 14.85458467110872
SL-14 R/B               
1 16882U 86055B   25329.15153898  .00000680  00000+0  75880-4 0  9995
2 16882  82.5218 224.8971 0018027 322.1989 202.0579 14.85504877103848
AJISAI (EGS)            
1 16908U 86061A   25329.07515441 -.00000092  00000+0  39076-4 0  9993
2 16908  50.0108  55.0334 0011234  21.5249  46.2937 12.44514102454978
COSMOS 1812             
1 17295U 87003A   25328.98634311  .00092614  00000+0  71442-3 0  9999
2 17295  82.4879 311.1761 0006575 110.5499 249.6469 15.71614142127862
SL-14 R/B               
1 17567U 87024B   25329.07009716  .00000564  00000+0  61627-4 0  9998
2 17567  82.5287 191.0522 0016836 245.5849 114.3611 14.85999065 72597
COSMOS 1833             
1 17589U 87027A   25329.01997184 -.00000074  00000+0 -13782-4 0  9991
2 17589  70.9127 186.0271 0021785 356.7288   3.3686 14.13017964995527
SL-16 R/B               
1 17590U 87027B   25328.87381777  .00000222  00000+0  13404-3 0  9994
2 17590  71.0002 137.3641 0007272 278.0340  81.9958 14.17148200   492
SL-14 R/B               
1 17912U 87038B   25329.14609370  .00000624  00000+0  69668-4 0  9997
2 17912  82.5031  35.2700 0020180 146.5716 213.6779 14.85237186 63716
COSMOS 1844             
1 17973U 87041A   25329.09514789  .00000026  00000+0  38560-4 0  9994
2 17973  70.8995 254.7846 0030860 184.4317 175.6537 14.14528304988795
SL-14 R/B               
1 18153U 87055B   25329.07371784  .00000669  00000+0  74498-4 0  9997
2 18153  82.4990  87.6357 0020720   3.7392 356.3975 14.85493331 54405
COSMOS 1867             
1 18187U 87060A   25329.06738282 -.00000009  00000+0  34247-4 0  9996
2 18187  65.0101 239.6908 0013630 269.3056  90.6467 14.31482083  4966
COSMOS 1892             
1 18421U 87088A   25329.23146236  .00859773  44460-3  75267-3 0  9995
2 18421  82.4632  63.4200 0005564 269.7044  90.3603 16.13202004 88512
